NORAD_CAT_ID,OBJECT_NAME,OBJECT_TYPE,EPOCH,MEAN_MOTION,ECCENTRICITY,INCLINATION,RA_OF_ASC_NODE,ARG_OF_PERICENTER,MEAN_ANOMALY,BSTAR,MEAN_MOTION_DOT,MEAN_MOTION_DDOT,TLE_LINE0,TLE_LINE1,TLE_LINE2,SEMIMAJOR_AXIS,PERIOD,APOGEE,PERIGEE,DECAYED
53153.0,STARLINK-4098,PAYLOAD,2023-12-14 23:37:23,15.08844188,0.0001551,53.2159,225.9668,89.1556,270.9614,8.5395e-05,1.071e-05,0.0,0 STARLINK-4098,1 53153U 22083X   23348.98430295  .00001071  00000-0  85395-4 0  9995,2 53153  53.2159 225.9668 0001551  89.1556 270.9614 15.08844188 78212,6917.868,95.437,540.806,538.66,0.0
53153.0,STARLINK-4098,PAYLOAD,2023-12-15 20:17:24,15.08842879,0.0001661,53.2159,222.1018,78.358,281.7598,7.2433e-05,8.65e-06,0.0,0 STARLINK-4098,1 53153U 22083X   23349.84542425  .00000865  00000-0  72433-4 0  9999,2 53153  53.2159 222.1018 0001661  78.3580 281.7598 15.08842879 78978,6917.872,95.437,540.886,538.588,0.0
53153.0,STARLINK-4098,PAYLOAD,2023-12-15 21:52:47,15.08844143,0.0001696,53.2157,221.8049,76.3975,283.7206,8.3715e-05,1.045e-05,0.0,0 STARLINK-4098,1 53153U 22083X   23349.91166316  .00001045  00000-0  83715-4 0  9994,2 53153  53.2157 221.8049 0001696  76.3975 283.7206 15.08844143 78356,6917.868,95.437,540.906,538.559,0.0
53153.0,STARLINK-4098,PAYLOAD,2023-12-15 23:28:10,15.08846997,0.0001748,53.2163,221.5065,75.5356,284.583,0.00010605,1.4e-05,0.0,0 STARLINK-4098,1 53153U 22083X   23349.97790075  .00001400  00000-0  10605-3 0  9997,2 53153  53.2163 221.5065 0001748  75.5356 284.5830 15.08846997 78362,6917.859,95.437,540.933,538.515,0.0
53153.0,STARLINK-4098,PAYLOAD,2023-12-16 20:08:12,15.08839517,0.0001916,53.2174,217.6382,71.9812,288.1389,4.2227e-05,3.84e-06,0.0,0 STARLINK-4098,1 53153U 22083X   23350.83902799  .00000384  00000-0  42227-4 0  9998,2 53153  53.2174 217.6382 0001916  71.9812 288.1389 15.08839517 79120,6917.882,95.438,541.072,538.421,0.0
53153.0,STARLINK-4098,PAYLOAD,2023-12-16 21:43:36,15.08782146,0.0001935,53.2171,217.3418,84.8795,275.2418,0.00078614,0.00012226,0.0,0 STARLINK-4098,1 53153U 22083X   23350.90528027  .00012226  00000-0  78614-3 0  9990,2 53153  53.2171 217.3418 0001935  84.8795 275.2418 15.08782146 78504,6918.057,95.441,541.261,538.584,0.0
53153.0,STARLINK-4098,PAYLOAD,2023-12-17 19:58:58,15.08824496,0.000181,53.2174,213.1812,95.5397,264.5802,0.0003107,4.658e-05,0.0,0 STARLINK-4098,1 53153U 22083X   23351.83262686  .00004658  00000-0  31070-3 0  9994,2 53153  53.2174 213.1812 0001810  95.5397 264.5802 15.08824496 79276,6917.928,95.439,541.045,538.541,0.0
53153.0,STARLINK-4098,PAYLOAD,2023-12-17 21:34:21,15.08850697,0.0001817,53.2177,212.8808,78.3218,281.7978,1.2879e-05,-8.3e-07,0.0,0 STARLINK-4098,1 53153U 22083X   23351.89886169 -.00000083  00000-0  12879-4 0  9994,2 53153  53.2177 212.8808 0001817  78.3218 281.7978 15.08850697 78656,6917.848,95.437,540.97,538.456,0.0
53153.0,STARLINK-4098,PAYLOAD,2023-12-18 19:49:46,15.08837247,0.0001622,53.2162,208.7175,105.6365,254.4806,6.302e-05,7.15e-06,0.0,0 STARLINK-4098,1 53153U 22083X   23352.82622700  .00000715  00000-0  63020-4 0  9992,2 53153  53.2162 208.7175 0001622 105.6365 254.4806 15.08837247 79421,6917.889,95.438,540.876,538.632,0.0
53153.0,STARLINK-4098,PAYLOAD,2023-12-18 21:25:09,15.08837574,0.0001537,53.2158,208.4182,97.1875,262.9292,5.0901e-05,5.22e-06,0.0,0 STARLINK-4098,1 53153U 22083X   23352.89246749  .00000522  00000-0  50901-4 0  9994,2 53153  53.2158 208.4182 0001537  97.1875 262.9292 15.08837574 78804,6917.888,95.438,540.816,538.69,0.0
53153.0,STARLINK-4098,PAYLOAD,2023-12-19 19:40:34,15.08832389,0.0001589,53.2154,204.2539,106.6424,253.4742,-6.2446e-05,-1.281e-05,0.0,0 STARLINK-4098,1 53153U 22083X   23353.81983912 -.00001281  00000-0 -62446-4 0  9999,2 53153  53.2154 204.2539 0001589 106.6424 253.4742 15.08832389 79572,6917.904,95.438,540.868,538.669,0.0
53153.0,STARLINK-4098,PAYLOAD,2023-12-19 21:15:57,15.08832449,0.0001441,53.2153,203.959,99.099,261.0165,-6.3026e-05,-1.291e-05,0.0,0 STARLINK-4098,1 53153U 22083X   23353.88607996 -.00001291  00000-0 -63026-4 0  9997,2 53153  53.2153 203.9590 0001441  99.0990 261.0165 15.08832449 78956,6917.903,95.438,540.765,538.772,0.0
53153.0,STARLINK-4098,PAYLOAD,2023-12-20 19:31:21,15.08838362,0.0001238,53.2146,199.7968,97.378,262.7353,0.00013182,1.811e-05,0.0,0 STARLINK-4098,1 53153U 22083X   23354.81343790  .00001811  00000-0  13182-3 0  9993,2 53153  53.2146 199.7968 0001238  97.3780 262.7353 15.08838362 79094,6917.885,95.438,540.607,538.894,0.0
53153.0,STARLINK-4098,PAYLOAD,2023-12-21 20:57:31,15.08844133,0.0001164,53.2145,195.0409,100.1706,259.9418,0.00015269,2.143e-05,0.0,0 STARLINK-4098,1 53153U 22083X   23355.87327635  .00002143  00000-0  15269-3 0  9997,2 53153  53.2145 195.0409 0001164 100.1706 259.9418 15.08844133 79252,6917.868,95.437,540.538,538.928,0.0
53153.0,STARLINK-4098,PAYLOAD,2023-12-22 20:48:17,15.08846822,0.0001235,53.2145,190.5794,94.5232,265.5901,0.00011813,1.593e-05,0.0,0 STARLINK-4098,1 53153U 22083X   23356.86687361  .00001593  00000-0  11813-3 0  9991,2 53153  53.2145 190.5794 0001235  94.5232 265.5901 15.08846822 79402,6917.86,95.437,540.579,538.87,0.0
53153.0,STARLINK-4098,PAYLOAD,2023-12-23 12:42:09,15.08844811,0.0001434,53.2144,187.6082,77.797,282.3183,9.2427e-05,1.184e-05,0.0,0 STARLINK-4098,1 53153U 22083X   23357.52927494  .00001184  00000-0  92427-4 0  9996,2 53153  53.2144 187.6082 0001434  77.7970 282.3183 15.08844811 80138,6917.866,95.437,540.723,538.739,0.0
53153.0,STARLINK-4098,PAYLOAD,2023-12-23 19:03:41,15.08843141,0.0001396,53.2145,186.4168,80.6408,279.4742,6.3447e-05,7.22e-06,0.0,0 STARLINK-4098,1 53153U 22083X   23357.79423545  .00000722  00000-0  63447-4 0  9990,2 53153  53.2145 186.4168 0001396  80.6408 279.4742 15.08843141 79543,6917.871,95.437,540.702,538.77,0.0
53153.0,STARLINK-4098,PAYLOAD,2023-12-24 18:54:28,15.08845622,0.0001364,53.2155,181.956,83.8989,276.2159,7.6554e-05,9.31e-06,0.0,0 STARLINK-4098,1 53153U 22083X   23358.78783190  .00000931  00000-0  76554-4 0  9990,2 53153  53.2155 181.9560 0001364  83.8989 276.2159 15.08845622 80325,6917.863,95.437,540.672,538.785,0.0
53153.0,STARLINK-4098,PAYLOAD,2023-12-25 12:23:43,15.0884135,0.0001417,53.216,178.6848,92.924,267.1914,7.1519e-05,8.51e-06,0.0,0 STARLINK-4098,1 53153U 22083X   23359.51647339  .00000851  00000-0  71519-4 0  9993,2 53153  53.2160 178.6848 0001417  92.9240 267.1914 15.08841350 79806,6917.876,95.437,540.722,538.761,0.0
53153.0,STARLINK-4098,PAYLOAD,2023-12-25 18:45:15,15.08841064,0.0001419,53.2163,177.4949,102.0564,258.0587,5.3518e-05,5.64e-06,0.0,0 STARLINK-4098,1 53153U 22083X   23359.78143274  .00000564  00000-0  53518-4 0  9991,2 53153  53.2163 177.4949 0001419 102.0564 258.0587 15.08841064 80474,6917.877,95.437,540.724,538.76,0.0
53153.0,STARLINK-4098,PAYLOAD,2023-12-26 17:00:40,15.0883688,0.0001484,53.2166,173.3323,106.9414,253.1741,1.8261e-05,3e-08,0.0,0 STARLINK-4098,1 53153U 22083X   23360.70879677  .00000003  00000-0  18261-4 0  9992,2 53153  53.2166 173.3323 0001484 106.9414 253.1741 15.08836880 80611,6917.89,95.438,540.782,538.728,0.0
53153.0,STARLINK-4098,PAYLOAD,2023-12-26 21:46:49,15.08837475,0.0001456,53.2164,172.4391,105.5485,254.5668,2.1286e-05,5.1e-07,0.0,0 STARLINK-4098,1 53153U 22083X   23360.90751622  .00000051  00000-0  21286-4 0  9997,2 53153  53.2164 172.4391 0001456 105.5485 254.5668 15.08837475 80014,6917.888,95.438,540.76,538.746,0.0
53153.0,STARLINK-4098,PAYLOAD,2023-12-27 12:05:17,15.08839081,0.0001422,53.2163,169.7631,106.2517,253.8631,6.1785e-05,6.95e-06,0.0,0 STARLINK-4098,1 53153U 22083X   23361.50367493  .00000695  00000-0  61785-4 0  9995,2 53153  53.2163 169.7631 0001422 106.2517 253.8631 15.08839081 80103,6917.883,95.438,540.732,538.764,0.0
53153.0,STARLINK-4098,PAYLOAD,2023-12-27 16:51:26,15.08842168,0.0001378,53.2164,168.8707,101.2951,258.8196,8.1154e-05,1.004e-05,0.0,0 STARLINK-4098,1 53153U 22083X   23361.70239283  .00001004  00000-0  81154-4 0  9999,2 53153  53.2164 168.8707 0001378 101.2951 258.8196 15.08842168 80139,6917.874,95.437,540.692,538.785,0.0
53153.0,STARLINK-4098,PAYLOAD,2023-12-28 18:17:37,15.08836018,0.0001274,53.2158,164.1127,72.6736,287.4395,4.0247e-05,3.53e-06,0.0,0 STARLINK-4098,1 53153U 22083X   23362.76224083  .00000353  00000-0  40247-4 0  9992,2 53153  53.2158 164.1127 0001274  72.6736 287.4395 15.08836018 80927,6917.893,95.438,540.639,538.876,0.0
53153.0,STARLINK-4098,PAYLOAD,2023-12-28 19:53:00,15.08836653,0.0001273,53.216,163.8152,80.7475,279.3661,4.5857e-05,4.42e-06,0.0,0 STARLINK-4098,1 53153U 22083X   23362.82847964  .00000442  00000-0  45857-4 0  9999,2 53153  53.2160 163.8152 0001273  80.7475 279.3661 15.08836653 80306,6917.891,95.438,540.636,538.875,0.0
53153.0,STARLINK-4098,PAYLOAD,2023-12-29 14:57:38,15.08838631,0.0001317,53.2161,160.2446,77.5312,282.5828,1.8721e-05,1e-07,0.0,0 STARLINK-4098,1 53153U 22083X   23363.62336058  .00000010  00000-0  18721-4 0  9996,2 53153  53.2161 160.2446 0001317  77.5312 282.5828 15.08838631 80429,6917.885,95.438,540.661,538.838,0.0
53153.0,STARLINK-4098,PAYLOAD,2023-12-29 18:08:24,15.08839729,0.0001339,53.2162,159.6496,77.3044,282.8098,2.6127e-05,1.28e-06,0.0,0 STARLINK-4098,1 53153U 22083X   23363.75583970  .00000128  00000-0  26127-4 0  9996,2 53153  53.2162 159.6496 0001339  77.3044 282.8098 15.08839729 80444,6917.881,95.438,540.673,538.82,0.0
53153.0,STARLINK-4098,PAYLOAD,2023-12-30 14:48:25,15.08836329,0.0001318,53.2162,155.7846,79.0181,281.096,4.0505e-05,3.57e-06,0.0,0 STARLINK-4098,1 53153U 22083X   23364.61696316  .00000357  00000-0  40505-4 0  9991,2 53153  53.2162 155.7846 0001318  79.0181 281.0960 15.08836329 80574,6917.892,95.438,540.668,538.845,0.0
53153.0,STARLINK-4098,PAYLOAD,2023-12-30 19:34:34,15.08839804,0.0001373,53.2163,154.892,77.3734,282.7411,6.963e-05,8.2e-06,0.0,0 STARLINK-4098,1 53153U 22083X   23364.81568056  .00000820  00000-0  69630-4 0  9997,2 53153  53.2163 154.8920 0001373  77.3734 282.7411 15.08839804 81238,6917.881,95.438,540.696,538.796,0.0
